NORAD_CAT_ID,OBJECT_NAME,OBJECT_TYPE,EPOCH,MEAN_MOTION,ECCENTRICITY,INCLINATION,RA_OF_ASC_NODE,ARG_OF_PERICENTER,MEAN_ANOMALY,BSTAR,MEAN_MOTION_DOT,MEAN_MOTION_DDOT,TLE_LINE0,TLE_LINE1,TLE_LINE2,SEMIMAJOR_AXIS,PERIOD,APOGEE,PERIGEE,DECAYED
52870.0,STARLINK-4195,PAYLOAD,2024-07-02 13:06:45,15.08839968,0.0001515,53.2162,265.6069,69.8209,290.2945,3.6953e-05,3e-06,0.0,0 STARLINK-4195,1 52870U 22062AS  24184.54636359  .00000300  00000-0  36953-4 0  9997,2 52870  53.2162 265.6069 0001515  69.8209 290.2945 15.08839968113556,6917.88,95.438,540.794,538.697,0.0
52870.0,STARLINK-4195,PAYLOAD,2024-07-02 14:42:08,15.08842203,0.0001505,53.2152,265.3081,72.4671,287.6486,4.1385e-05,3.71e-06,0.0,0 STARLINK-4195,1 52870U 22062AS  24184.61260167  .00000371  00000-0  41385-4 0  9998,2 52870  53.2152 265.3081 0001505  72.4671 287.6486 15.08842203113071,6917.874,95.437,540.78,538.698,0.0
52870.0,STARLINK-4195,PAYLOAD,2024-07-03 05:00:37,15.08830425,0.0001025,53.2145,262.6314,91.231,268.8799,1.082e-05,-1.16e-06,0.0,0 STARLINK-4195,1 52870U 22062AS  24185.20876912 -.00000116  00000-0  10820-4 0  9993,2 52870  53.2145 262.6314 0001025  91.2310 268.8799 15.08830425113653,6917.91,95.438,540.484,539.066,0.0
52870.0,STARLINK-4195,PAYLOAD,2024-07-03 11:22:10,15.08833661,0.0001334,53.2138,261.4445,77.0303,283.0838,1.4364e-05,-5.9e-07,0.0,0 STARLINK-4195,1 52870U 22062AS  24185.47372900 -.00000059  00000-0  14364-4 0  9993,2 52870  53.2138 261.4445 0001334  77.0303 283.0838 15.08833661113203,6917.9,95.438,540.688,538.842,0.0
52870.0,STARLINK-4195,PAYLOAD,2024-07-04 04:51:24,15.08838026,0.0001458,53.2163,258.1747,82.5877,277.528,6.8239e-05,7.98e-06,0.0,0 STARLINK-4195,1 52870U 22062AS  24186.20236539  .00000798  00000-0  68239-4 0  9991,2 52870  53.2163 258.1747 0001458  82.5877 277.5280 15.08838026113808,6917.886,95.438,540.76,538.743,0.0
52870.0,STARLINK-4195,PAYLOAD,2024-07-04 11:12:56,15.08847971,0.0001252,53.2165,256.9849,94.9002,265.2133,2.1978e-05,6.2e-07,0.0,0 STARLINK-4195,1 52870U 22062AS  24186.46732023  .00000062  00000-0  21978-4 0  9991,2 52870  53.2165 256.9849 0001252  94.9002 265.2133 15.08847971113842,6917.856,95.437,540.587,538.855,0.0
52870.0,STARLINK-4195,PAYLOAD,2024-07-04 14:23:42,15.08849432,0.000135,53.2164,256.3901,89.9,270.2147,6.8706e-05,8.06e-06,0.0,0 STARLINK-4195,1 52870U 22062AS  24186.59979751  .00000806  00000-0  68706-4 0  9992,2 52870  53.2164 256.3901 0001350  89.9000 270.2147 15.08849432113378,6917.852,95.437,540.65,538.783,0.0
52870.0,STARLINK-4195,PAYLOAD,2024-07-04 22:20:38,15.08846686,0.0001267,53.2163,254.9034,90.9198,269.1939,3.2552e-05,2.3e-06,0.0,0 STARLINK-4195,1 52870U 22062AS  24186.93099924  .00000230  00000-0  32552-4 0  9996,2 52870  53.2163 254.9034 0001267  90.9198 269.1939 15.08846686113425,6917.86,95.437,540.601,538.848,0.0
52870.0,STARLINK-4195,PAYLOAD,2024-07-05 04:42:11,15.08840275,0.000146,53.2165,253.7128,95.0228,265.0931,6.1352e-05,6.89e-06,0.0,0 STARLINK-4195,1 52870U 22062AS  24187.19596330  .00000689  00000-0  61352-4 0  9996,2 52870  53.2165 253.7128 0001460  95.0228 265.0931 15.08840275113956,6917.88,95.438,540.755,538.735,0.0
52870.0,STARLINK-4195,PAYLOAD,2024-07-05 11:03:43,15.08849287,0.0001457,53.2169,252.5231,96.3658,263.75,3.3931e-05,2.52e-06,0.0,0 STARLINK-4195,1 52870U 22062AS  24187.46091777  .00000252  00000-0  33931-4 0  9999,2 52870  53.2169 252.5231 0001457  96.3658 263.7500 15.08849287113992,6917.852,95.437,540.725,538.709,0.0
52870.0,STARLINK-4195,PAYLOAD,2024-07-06 10:54:31,15.08839632,0.0001322,53.2165,248.0654,88.8911,271.2233,-1.5522e-05,-5.35e-06,0.0,0 STARLINK-4195,1 52870U 22062AS  24188.45452553 -.00000535  00000-0 -15522-4 0  9994,2 52870  53.2165 248.0654 0001322  88.8911 271.2233 15.08839632114144,6917.882,95.438,540.661,538.832,0.0
52870.0,STARLINK-4195,PAYLOAD,2024-07-06 20:26:50,15.08836007,0.0001211,53.2164,246.2814,85.5816,274.5314,-3.2424e-05,-8.04e-06,0.0,0 STARLINK-4195,1 52870U 22062AS  24188.85196815 -.00000804  00000-0 -32424-4 0  9993,2 52870  53.2164 246.2814 0001211  85.5816 274.5314 15.08836007113717,6917.893,95.438,540.595,538.92,0.0
52870.0,STARLINK-4195,PAYLOAD,2024-07-07 10:45:18,15.08839441,0.0001479,53.217,243.6065,93.7827,266.3335,6.9504e-06,-1.77e-06,0.0,0 STARLINK-4195,1 52870U 22062AS  24189.44812610 -.00000177  00000-0  69504-5 0  9999,2 52870  53.2170 243.6065 0001479  93.7827 266.3335 15.08839441113809,6917.882,95.438,540.77,538.724,0.0
52870.0,STARLINK-4195,PAYLOAD,2024-07-08 04:14:32,15.08833911,0.0001527,53.2168,240.3332,87.5933,272.5234,4.9056e-05,4.93e-06,0.0,0 STARLINK-4195,1 52870U 22062AS  24190.17676997  .00000493  00000-0  49056-4 0  9996,2 52870  53.2168 240.3332 0001527  87.5933 272.5234 15.08833911114400,6917.899,95.438,540.82,538.708,0.0
52870.0,STARLINK-4195,PAYLOAD,2024-07-08 09:00:42,15.08835062,0.0001522,53.2168,239.4413,87.9402,272.1765,5.4941e-05,5.86e-06,0.0,0 STARLINK-4195,1 52870U 22062AS  24190.37548966  .00000586  00000-0  54941-4 0  9994,2 52870  53.2168 239.4413 0001522  87.9402 272.1765 15.08835062113941,6917.895,95.438,540.813,538.708,0.0
52870.0,STARLINK-4195,PAYLOAD,2024-07-08 20:08:24,15.08836198,0.0001532,53.2169,237.3597,87.1957,272.9211,6.7657e-05,7.89e-06,0.0,0 STARLINK-4195,1 52870U 22062AS  24190.83917010  .00000789  00000-0  67657-4 0  9998,2 52870  53.2169 237.3597 0001532  87.1957 272.9211 15.08836198114014,6917.892,95.438,540.817,538.697,0.0
52870.0,STARLINK-4195,PAYLOAD,2024-07-09 12:02:15,15.0884133,0.0001549,53.2168,234.3838,84.0862,276.0307,6.7716e-05,7.9e-06,0.0,0 STARLINK-4195,1 52870U 22062AS  24191.50156759  .00000790  00000-0  67716-4 0  9996,2 52870  53.2168 234.3838 0001549  84.0862 276.0307 15.08841330114607,6917.876,95.437,540.813,538.67,0.0
52870.0,STARLINK-4195,PAYLOAD,2024-07-10 10:17:39,15.08836479,0.0001416,53.2159,230.2205,90.9385,269.177,3.391e-06,-2.34e-06,0.0,0 STARLINK-4195,1 52870U 22062AS  24192.42893373 -.00000234  00000-0  33910-5 0  9992,2 52870  53.2159 230.2205 0001416  90.9385 269.1770 15.08836479114749,6917.891,95.438,540.736,538.777,0.0
52870.0,STARLINK-4195,PAYLOAD,2024-07-11 11:43:49,15.08843024,0.0001394,53.2157,225.4619,97.6623,262.4527,2.9036e-05,1.74e-06,0.0,0 STARLINK-4195,1 52870U 22062AS  24193.48876889  .00000174  00000-0  29036-4 0  9997,2 52870  53.2157 225.4619 0001394  97.6623 262.4527 15.08843024114410,6917.871,95.437,540.7,538.772,0.0
52870.0,STARLINK-4195,PAYLOAD,2024-07-12 11:34:36,15.08843181,0.00014,53.2158,221.002,95.5922,264.523,7.4225e-05,8.94e-06,0.0,0 STARLINK-4195,1 52870U 22062AS  24194.48236748  .00000894  00000-0  74225-4 0  9991,2 52870  53.2158 221.0020 0001400  95.5922 264.5230 15.08843181114560,6917.871,95.437,540.704,538.767,0.0
52870.0,STARLINK-4195,PAYLOAD,2024-07-13 05:03:51,15.08838423,0.0001466,53.2158,217.7298,98.5909,261.5249,6.6285e-06,-1.82e-06,0.0,0 STARLINK-4195,1 52870U 22062AS  24195.21101287 -.00000182  00000-0  66285-5 0  9991,2 52870  53.2158 217.7298 0001466  98.5909 261.5249 15.08838423115166,6917.885,95.438,540.764,538.736,0.0
52870.0,STARLINK-4195,PAYLOAD,2024-07-13 08:14:37,15.08837825,0.0001455,53.2157,217.1353,97.8905,262.2253,-1.0395e-06,-3.05e-06,0.0,0 STARLINK-4195,1 52870U 22062AS  24195.34349353 -.00000305  00000-0 -10395-5 0  9992,2 52870  53.2157 217.1353 0001455  97.8905 262.2253 15.08837825114692,6917.887,95.438,540.759,538.745,0.0
52870.0,STARLINK-4195,PAYLOAD,2024-07-14 08:05:24,15.08843113,0.0001359,53.2155,212.6782,87.5689,272.5459,4.2142e-05,3.83e-06,0.0,0 STARLINK-4195,1 52870U 22062AS  24196.33708947  .00000383  00000-0  42142-4 0  9998,2 52870  53.2155 212.6782 0001359  87.5689 272.5459 15.08843113115335,6917.871,95.437,540.676,538.796,0.0
52870.0,STARLINK-4195,PAYLOAD,2024-07-14 17:37:43,15.08839779,0.0001312,53.2147,210.8935,84.9385,275.1756,2.1734e-05,5.8e-07,0.0,0 STARLINK-4195,1 52870U 22062AS  24196.73453178  .00000058  00000-0  21734-4 0  9998,2 52870  53.2147 210.8935 0001312  84.9385 275.1756 15.08839779114903,6917.881,95.438,540.654,538.838,0.0
52870.0,STARLINK-4195,PAYLOAD,2024-07-15 04:45:25,15.08834593,0.0001363,53.2157,208.8116,84.0501,276.0646,3.2663e-05,2.32e-06,0.0,0 STARLINK-4195,1 52870U 22062AS  24197.19821595  .00000232  00000-0  32663-4 0  9998,2 52870  53.2157 208.8116 0001363  84.0501 276.0646 15.08834593115468,6917.897,95.438,540.705,538.819,0.0
52870.0,STARLINK-4195,PAYLOAD,2024-07-15 09:31:35,15.08836621,0.000139,53.216,207.9196,84.0719,276.0432,4.4731e-05,4.24e-06,0.0,0 STARLINK-4195,1 52870U 22062AS  24197.39693484  .00000424  00000-0  44731-4 0  9996,2 52870  53.2160 207.9196 0001390  84.0719 276.0432 15.08836621115008,6917.891,95.438,540.717,538.794,0.0
52870.0,STARLINK-4195,PAYLOAD,2024-07-16 09:22:22,15.08840481,0.0001419,53.2162,203.4597,86.4041,273.7113,1.505e-05,-4.8e-07,0.0,0 STARLINK-4195,1 52870U 22062AS  24198.39053474 -.00000048  00000-0  15050-4 0  9991,2 52870  53.2162 203.4597 0001419  86.4041 273.7113 15.08840481115641,6917.879,95.438,540.726,538.762,0.0
52870.0,STARLINK-4195,PAYLOAD,2024-07-17 09:13:09,15.08840966,0.0001409,53.2165,198.9992,91.9218,268.1935,6.6181e-05,7.66e-06,0.0,0 STARLINK-4195,1 52870U 22062AS  24199.38413351  .00000766  00000-0  66181-4 0  9992,2 52870  53.2165 198.9992 0001409  91.9218 268.1935 15.08840966115308,6917.877,95.437,540.717,538.768,0.0
52870.0,STARLINK-4195,PAYLOAD,2024-07-18 04:17:47,15.08838975,0.0001513,53.2169,195.4232,80.6985,279.4178,3.3177e-05,2.4e-06,0.0,0 STARLINK-4195,1 52870U 22062AS  24200.17901759  .00000240  00000-0  33177-4 0  9992,2 52870  53.2169 195.4232 0001513  80.6985 279.4178 15.08838975115911,6917.884,95.438,540.795,538.702,0.0
52870.0,STARLINK-4195,PAYLOAD,2024-07-18 07:28:33,15.08841094,0.0001421,53.2162,194.836,93.4644,266.6511,5.175e-05,5.36e-06,0.0,0 STARLINK-4195,1 52870U 22062AS  24200.31149564  .00000536  00000-0  51750-4 0  9991,2 52870  53.2162 194.8360 0001421  93.4644 266.6511 15.08841094115444,6917.877,95.437,540.725,538.759,0.0
